ONEWEB-0545             
1 54647U 22166F   24214.21350159 -.00000036  00000+0 -11855-3 0  9995
2 54647  87.9287  20.3607 0002182  81.8135 278.3247 13.21827022 81488
ONEWEB-0580             
1 54648U 22166G   24213.95961002 -.00000971  00000+0 -23838-2 0  9992
2 54648  87.9294  20.3829 0002376  90.6943 269.4463 13.21818368 81027
ONEWEB-0582             
1 54649U 22166H   24213.92648633 -.00000052  00000+0 -15687-3 0  9996
2 54649  87.9291  20.4258 0002553  91.6096 268.5330 13.21827122 81468
ONEWEB-0583             
1 54650U 22166J   24213.93751669 -.00000016  00000+0 -69319-4 0  9995
2 54650  87.9289  20.4232 0001866  89.2158 270.9190 13.21828147 81006
ONEWEB-0584             
1 54651U 22166K   24213.95802736  .00000132  00000+0  28927-3 0  9996
2 54651  87.9294  20.3870 0002157  89.2233 270.9148 13.21827296 80992
ONEWEB-0585             
1 54652U 22166L   24213.90755135  .00000006  00000+0 -16644-4 0  9997
2 54652  87.9298  20.4067 0001749  93.8096 266.3238 13.21827582 80997
ONEWEB-0586             
1 54653U 22166M   24213.92018206 -.00000052  00000+0 -15806-3 0  9991
2 54653  87.9290  20.4164 0002058  88.5712 271.5657 13.21824984 80994
ONEWEB-0587             
1 54654U 22166N   24214.15672890 -.00000036  00000+0 -11935-3 0  9994
2 54654  87.9289  20.3239 0001557  94.6027 265.5285 13.21824900 81646
